ONEWEB-0710             
1 55173U 23004AK  24026.46916921  .00000037  00000+0  62055-4 0  9993
2 55173  87.9223 179.4417 0001393  90.8515 269.2776 13.17648676 52657
ONEWEB-0711             
1 55174U 23004AL  24026.49305235 -.00000492  00000+0 -14230-2 0  9994
2 55174  87.8971 194.5342 0000569 122.5039 237.6144 13.11419817 51452
ONEWEB-0713             
1 55175U 23004AM  24026.51091060  .00000156  00000+0  40319-3 0  9999
2 55175  87.8971 194.5382 0001048 102.7156 257.4089 13.11419950 51445
ONEWEB-0715             
1 55176U 23004AN  24026.50604345 -.00000081  00000+0 -26289-3 0  9994
2 55176  87.8974 194.5394 0001306 107.2174 252.9096 13.11419373 51480
ONEWEB-0716             
1 55177U 23004AP  24026.46283928  .00000062  00000+0  12606-3 0  9995
2 55177  87.9224 179.4313 0001758 103.9233 256.2094 13.17647740 52655
ONEWEB-0717             
1 55178U 23004AQ  24026.44544282  .00000071  00000+0  15104-3 0  9993
2 55178  87.9225 179.4018 0000541  77.9880 282.1312 13.17648847 52702
ONEWEB-0719             
1 55179U 23004AR  24026.45650903  .00000015  00000+0  55223-5 0  9999
2 55179  87.9221 179.3862 0001436 109.6425 250.4861 13.17649307 52650
ONEWEB-0530             
1 55796U 23029A   24026.59948752  .00000093  00000+0  19691-3 0  9991
2 55796  87.9170  88.1635 0001305 112.7063 247.4208 13.20771462 45960
